

*******************************************************************************
Ephemeris / WWW_USER Tue Apr 28 15:00:56 2026 Pasadena, USA      / Horizons
*******************************************************************************
Target body name: James Webb Space Telescope (spacecraft) (-170) {source: JWST_merged}
Center body name: Solar System Barycenter (0)     {source: DE441}
Center-site name: BODY CENTER
*******************************************************************************
Start time      : A.D. 2021-Dec-25 13:01:09.1840 TDB
Stop  time      : A.D. 2022-May-21 00:00:00.0000 TDB
Step-size       : 15 minutes
*******************************************************************************
Center geodetic : 0.0, 0.0, 0.0                   {E-lon(deg),Lat(deg),Alt(km)}
Center cylindric: 0.0, 0.0, 0.0                   {E-lon(deg),Dxy(km),Dz(km)}
Center radii    : (undefined)
Output units    : KM-S
Calendar mode   : Mixed Julian/Gregorian
Output type     : GEOMETRIC cartesian states
Output format   : 2 (position and velocity)
Reference frame : Ecliptic of J2000.0
*******************************************************************************
            JDTDB,            Calendar Date (TDB),                      X,                      Y,                      Z,                     VX,                     VY,                     VZ,
**************************************************************************************************************************************************************************************************
$$SOE
2459628.688300741, A.D. 2022-Feb-18 04:31:09.1840, -1.289830769744263E+08,  7.746271027044101E+07, -1.622543599178270E+05, -1.595229822620186E+01, -2.583449732581776E+01,  1.596501530393226E-01,
2459628.698717407, A.D. 2022-Feb-18 04:46:09.1840, -1.289974319377754E+08,  7.743945790952714E+07, -1.621106623878814E+05, -1.594762024138709E+01, -2.583741567262219E+01,  1.596776897940053E-01,
2459628.709134074, A.D. 2022-Feb-18 05:01:09.1840, -1.290117826907064E+08,  7.741620292248788E+07, -1.619669400841333E+05, -1.594294174167677E+01, -2.584033316002049E+01,  1.597052060946460E-01,
2459628.719550741, A.D. 2022-Feb-18 05:16:09.1840, -1.290261292327560E+08,  7.739294531009674E+07, -1.618231930249743E+05, -1.593826272718576E+01, -2.584324978797915E+01,  1.597327019344252E-01,
2459628.729967407, A.D. 2022-Feb-18 05:31:09.1840, -1.290404715634610E+08,  7.736968507312721E+07, -1.616794212288074E+05, -1.593358319807211E+01, -2.584616555636378E+01,  1.597601773155617E-01,
2459628.740384074, A.D. 2022-Feb-18 05:46:09.1840, -1.290548096823583E+08,  7.734642221235296E+07, -1.615356247140430E+05, -1.592890315450631E+01, -2.584908046505189E+01,  1.597876322214056E-01,
2459628.750800741, A.D. 2022-Feb-18 06:01:09.1840, -1.290691435889848E+08,  7.732315672854781E+07, -1.613918034991436E+05, -1.592422259661289E+01, -2.585199451400609E+01,  1.598150666634712E-01,
2459628.761217407, A.D. 2022-Feb-18 06:16:09.1840, -1.290834732828778E+08,  7.729988862248550E+07, -1.612479576025046E+05, -1.591954152452710E+01, -2.585490770314437E+01,  1.598424806447341E-01,
2459628.771634074, A.D. 2022-Feb-18 06:31:09.1840, -1.290977987635746E+08,  7.727661789493990E+07, -1.611040870425291E+05, -1.591485993838957E+01, -2.585782003239295E+01,  1.598698741516138E-01,
2459628.782050741, A.D. 2022-Feb-18 06:46:09.1840, -1.291121200306126E+08,  7.725334454668497E+07, -1.609601918376572E+05, -1.591017783836356E+01, -2.586073150164827E+01,  1.598972471916742E-01,
2459628.792467407, A.D. 2022-Feb-18 07:01:09.1840, -1.291264370835294E+08,  7.723006857849470E+07, -1.608162720062807E+05, -1.590549522456494E+01, -2.586364211087641E+01,  1.599245997730687E-01,
2459628.802884074, A.D. 2022-Feb-18 07:16:09.1840, -1.291407499218626E+08,  7.720678999114318E+07, -1.606723275668509E+05, -1.590081209714312E+01, -2.586655185997152E+01,  1.599519318822864E-01,
2459628.813300741, A.D. 2022-Feb-18 07:31:09.1840, -1.291550585451500E+08,  7.718350878540456E+07, -1.605283585377894E+05, -1.589612845624881E+01, -2.586946074884023E+01,  1.599792435234466E-01,
2459628.823717407, A.D. 2022-Feb-18 07:46:09.1840, -1.291693629529296E+08,  7.716022496205312E+07, -1.603843649375066E+05, -1.589144430201922E+01, -2.587236877742124E+01,  1.600065346926733E-01,
2459628.834134074, A.D. 2022-Feb-18 08:01:09.1840, -1.291836631447395E+08,  7.713693852186312E+07, -1.602403467844091E+05, -1.588675963463323E+01, -2.587527594556803E+01,  1.600338053871191E-01,
2459628.844550741, A.D. 2022-Feb-18 08:16:09.1840, -1.291979591201178E+08,  7.711364946560897E+07, -1.600963040969595E+05, -1.588207445420511E+01, -2.587818225324508E+01,  1.600610555962962E-01,
2459628.854967407, A.D. 2022-Feb-18 08:31:09.1840, -1.292122508786029E+08,  7.709035779406515E+07, -1.599522368935682E+05, -1.587738876085803E+01, -2.588108770039756E+01,  1.600882853472250E-01,
2459628.865384074, A.D. 2022-Feb-18 08:46:09.1840, -1.292265384197332E+08,  7.706706350800619E+07, -1.598081451926753E+05, -1.587270255474371E+01, -2.588399228697165E+01,  1.601154946258223E-01,
2459628.875800741, A.D. 2022-Feb-18 09:01:09.1840, -1.292408217430473E+08,  7.704376660820656E+07, -1.596640290126540E+05, -1.586801583598538E+01, -2.588689601286317E+01,  1.601426834291182E-01,
2459628.886217407, A.D. 2022-Feb-18 09:16:09.1840, -1.292551008480839E+08,  7.702046709544098E+07, -1.595198883719817E+05, -1.586332860478841E+01, -2.588979887794451E+01,  1.601698517576651E-01,
2459628.896634074, A.D. 2022-Feb-18 09:31:09.1840, -1.292693757343818E+08,  7.699716497048427E+07, -1.593757232890837E+05, -1.585864086128834E+01, -2.589270088208417E+01,  1.601969995937349E-01,
2459628.907050741, A.D. 2022-Feb-18 09:46:09.1840, -1.292836464014802E+08,  7.697386023411131E+07, -1.592315337823927E+05, -1.585395260568690E+01, -2.589560202514036E+01,  1.602241269382141E-01,
2459628.917467407, A.D. 2022-Feb-18 10:01:09.1840, -1.292979128489180E+08,  7.695055288709708E+07, -1.590873198703378E+05, -1.584926383806715E+01, -2.589850230710338E+01,  1.602512337852033E-01,
2459628.927884074, A.D. 2022-Feb-18 10:16:09.1840, -1.293121750762347E+08,  7.692724293021663E+07, -1.589430815713890E+05, -1.584457455864123E+01, -2.590140172781944E+01,  1.602783201422913E-01,
2459628.938300741, A.D. 2022-Feb-18 10:31:09.1840, -1.293264330829696E+08,  7.690393036424515E+07, -1.587988189040087E+05, -1.583988476753805E+01, -2.590430028716849E+01,  1.603053859782140E-01,
2459628.948717407, A.D. 2022-Feb-18 10:46:09.1840, -1.293406868686623E+08,  7.688061518995787E+07, -1.586545318866298E+05, -1.583519446491332E+01, -2.590719798509018E+01,  1.603324313182188E-01,
2459628.959134074, A.D. 2022-Feb-18 11:01:09.1840, -1.293549364328524E+08,  7.685729740813003E+07, -1.585102205376774E+05, -1.583050365077504E+01, -2.591009482176879E+01,  1.603594561898678E-01,
2459628.969550741, A.D. 2022-Feb-18 11:16:09.1840, -1.293691817750797E+08,  7.683397701953684E+07, -1.583658848756142E+05, -1.582581232531200E+01, -2.591299079699466E+01,  1.603864605726049E-01,
2459628.979967407, A.D. 2022-Feb-18 11:31:09.1840, -1.293834228948840E+08,  7.681065402495354E+07, -1.582215249188542E+05, -1.582112048858926E+01, -2.591588591088762E+01,  1.604134444974221E-01,
2459628.990384074, A.D. 2022-Feb-18 11:46:09.1840, -1.293976597918052E+08,  7.678732842515542E+07, -1.580771406858154E+05, -1.581642814073874E+01, -2.591878016333135E+01,  1.604404079530877E-01,
2459629.000800741, A.D. 2022-Feb-18 12:01:09.1840, -1.294118924653834E+08,  7.676400022091776E+07, -1.579327321948968E+05, -1.581173528194362E+01, -2.592167355422744E+01,  1.604673509493058E-01,
2459629.011217407, A.D. 2022-Feb-18 12:16:09.1840, -1.294261209151588E+08,  7.674066941301607E+07, -1.577882994645350E+05, -1.580704191238138E+01, -2.592456608340665E+01,  1.604942734563117E-01,
2459629.021634074, A.D. 2022-Feb-18 12:31:09.1840, -1.294403451406718E+08,  7.671733600222591E+07, -1.576438425131813E+05, -1.580234803217519E+01, -2.592745775081965E+01,  1.605211754870144E-01,
2459629.032050741, A.D. 2022-Feb-18 12:46:09.1840, -1.294545651414629E+08,  7.669399998932290E+07, -1.574993613592461E+05, -1.579765364144518E+01, -2.593034855644273E+01,  1.605480570412876E-01,
2459629.042467407, A.D. 2022-Feb-18 13:01:09.1840, -1.294687809170726E+08,  7.667066137508263E+07, -1.573548560211509E+05, -1.579295874031988E+01, -2.593323850022711E+01,  1.605749181265672E-01,
2459629.052884074, A.D. 2022-Feb-18 13:16:09.1840, -1.294829924670417E+08,  7.664732016028084E+07, -1.572103265173137E+05, -1.578826332898680E+01, -2.593612758200496E+01,  1.606017587321560E-01,
2459629.063300741, A.D. 2022-Feb-18 13:31:09.1840, -1.294971997909110E+08,  7.662397634569341E+07, -1.570657728662044E+05, -1.578356740760393E+01, -2.593901580167172E+01,  1.606285788452482E-01,
2459629.073717407, A.D. 2022-Feb-18 13:46:09.1840, -1.295114028882216E+08,  7.660062993209633E+07, -1.569211950862482E+05, -1.577887097642203E+01, -2.594190315895004E+01,  1.606553784568110E-01,
2459629.084134074, A.D. 2022-Feb-18 14:01:09.1840, -1.295256017585148E+08,  7.657728092026582E+07, -1.567765931959227E+05, -1.577417403556478E+01, -2.594478965376791E+01,  1.606821575413910E-01,
2459629.094550741, A.D. 2022-Feb-18 14:16:09.1840, -1.295397964013320E+08,  7.655392931097806E+07, -1.566319672136419E+05, -1.576947658516892E+01, -2.594767528610220E+01,  1.607089161259800E-01,
2459629.104967407, A.D. 2022-Feb-18 14:31:09.1840, -1.295539868162145E+08,  7.653057510500935E+07, -1.564873171579204E+05, -1.576477862532010E+01, -2.595056005594242E+01,  1.607356542076541E-01,
2459629.115384074, A.D. 2022-Feb-18 14:46:09.1840, -1.295681730027039E+08,  7.650721830313593E+07, -1.563426430471800E+05, -1.576008015620220E+01, -2.595344396317380E+01,  1.607623717952436E-01,
2459629.125800741, A.D. 2022-Feb-18 15:01:09.1840, -1.295823549603419E+08,  7.648385890613419E+07, -1.561979448998682E+05, -1.575538117789710E+01, -2.595632700782178E+01,  1.607890688830675E-01,
